{
  "type": "FeatureCollection",
  "features": [
    {
      "type": "Feature",
      "properties": {
        "Join_ID": "Field 4",
        "Field_Name": "Field #4 - Majors/AAA/AA",
        "Feature_Class": "Field"
      },
      "geometry": {
        "type": "Polygon",
        "coordinates": [
          [
            [
              -121.1895636,
              39.2039199
            ],
            [
              -121.189405,
              39.2035952
            ],
            [
              -121.1892521,
              39.2034109
            ],
            [
              -121.1891558,
              39.2033846
            ],
            [
              -121.1888104,
              39.2035206
            ],
            [
              -121.188564,
              39.2037049
            ],
            [
              -121.1886309,
              39.203796
            ],
            [
              -121.1887198,
              39.2038739
            ],
            [
              -121.1888476,
              39.203939
            ],
            [
              -121.1889916,
              39.2039836
            ],
            [
              -121.1891417,
              39.2040077
            ],
            [
              -121.1892917,
              39.2040033
            ],
            [
              -121.1894352,
              39.2039726
            ],
            [
              -121.1895636,
              39.2039199
            ]
          ]
        ]
      }
    },
    {
      "type": "Feature",
      "properties": {
        "Join_ID": "Field 3",
        "Field_Name": "Field #3 - Farm/T-Ball",
        "Feature_Class": "Field"
      },
      "geometry": {
        "type": "Polygon",
        "coordinates": [
          [
            [
              -121.188418,
              39.2038927
            ],
            [
              -121.1884529,
              39.2037054
            ],
            [
              -121.188497,
              39.203167
            ],
            [
              -121.1882926,
              39.2031544
            ],
            [
              -121.1881067,
              39.2031688
            ],
            [
              -121.1879394,
              39.2032121
            ],
            [
              -121.1878186,
              39.2032571
            ],
            [
              -121.1878464,
              39.2034425
            ],
            [
              -121.1877326,
              39.2035434
            ],
            [
              -121.1875816,
              39.2036334
            ],
            [
              -121.1874514,
              39.2036892
            ],
            [
              -121.1873074,
              39.2037306
            ],
            [
              -121.188346,
              39.2039251
            ],
            [
              -121.188418,
              39.2038927
            ]
          ]
        ]
      }
    },
    {
      "type": "Feature",
      "properties": {
        "Join_ID": "Field 2",
        "Field_Name": "Field #2 - 50/70 (Daytime)/Softball",
        "Feature_Class": "Field"
      },
      "geometry": {
        "type": "Polygon",
        "coordinates": [
          [
            [
              -121.1870553,
              39.2028472
            ],
            [
              -121.1873598,
              39.2030352
            ],
            [
              -121.1878466,
              39.2034426
            ],
            [
              -121.1877326,
              39.2035434
            ],
            [
              -121.1875819,
              39.2036332
            ],
            [
              -121.1874516,
              39.2036892
            ],
            [
              -121.1873074,
              39.2037306
            ],
            [
              -121.1863404,
              39.2035591
            ],
            [
              -121.1866733,
              39.2030832
            ],
            [
              -121.1869701,
              39.2028472
            ],
            [
              -121.1870553,
              39.2028472
            ]
          ]
        ]
      }
    },
    {
      "type": "Feature",
      "properties": {
        "Join_ID": "Field 1",
        "Field_Name": "Field #1 - Softball",
        "Feature_Class": "Field"
      },
      "geometry": {
        "type": "Polygon",
        "coordinates": [
          [
            [
              -121.1867847,
              39.2027435
            ],
            [
              -121.1868332,
              39.2028217
            ],
            [
              -121.1866724,
              39.2030837
            ],
            [
              -121.1863403,
              39.2035592
            ],
            [
              -121.1861257,
              39.2034749
            ],
            [
              -121.1859438,
              39.2033683
            ],
            [
              -121.1858069,
              39.2032366
            ],
            [
              -121.1857082,
              39.2030811
            ],
            [
              -121.1856777,
              39.2029338
            ],
            [
              -121.1856768,
              39.2027836
            ],
            [
              -121.1856851,
              39.2026349
            ],
            [
              -121.1857211,
              39.2024843
            ],
            [
              -121.1867847,
              39.2027435
            ]
          ]
        ]
      }
    },
    {
      "type": "Feature",
      "properties": {
        "Field_Name": "Parking",
        "Feature_Class": "Parking"
      },
      "geometry": {
        "type": "Polygon",
        "coordinates": [
          [
            [
              -121.1900413,
              39.2040812
            ],
            [
              -121.1898919,
              39.2041643
            ],
            [
              -121.1896233,
              39.2041963
            ],
            [
              -121.1894328,
              39.2040337
            ],
            [
              -121.1893663,
              39.2040221
            ],
            [
              -121.1893499,
              39.2039953
            ],
            [
              -121.1894399,
              39.2039757
            ],
            [
              -121.18957,
              39.2039234
            ],
            [
              -121.1895328,
              39.2038469
            ],
            [
              -121.189587,
              39.2038295
            ],
            [
              -121.1894438,
              39.2035308
            ],
            [
              -121.1895749,
              39.2034879
            ],
            [
              -121.189728,
              39.2037852
            ],
            [
              -121.189728,
              39.2037852
            ],
            [
              -121.1900413,
              39.2040812
            ]
          ]
        ]
      }
    },
    {
      "type": "Feature",
      "properties": {
        "Field_Name": "Parking",
        "Feature_Class": "Parking"
      },
      "geometry": {
        "type": "Polygon",
        "coordinates": [
          [
            [
              -121.1894429,
              39.2041546
            ],
            [
              -121.1894076,
              39.2041078
            ],
            [
              -121.1892847,
              39.2040707
            ],
            [
              -121.1890256,
              39.2040425
            ],
            [
              -121.1887722,
              39.2039594
            ],
            [
              -121.1885681,
              39.2038248
            ],
            [
              -121.1885124,
              39.2039835
            ],
            [
              -121.1894429,
              39.2041546
            ]
          ]
        ]
      }
    },
    {
      "type": "Feature",
      "properties": {
        "Field_Name": "Parking",
        "Feature_Class": "Parking"
      },
      "geometry": {
        "type": "Polygon",
        "coordinates": [
          [
            [
              -121.1885741,
              39.2035858
            ],
            [
              -121.1885958,
              39.2032421
            ],
            [
              -121.1885843,
              39.2031756
            ],
            [
              -121.1885512,
              39.2031202
            ],
            [
              -121.188471,
              39.2030797
            ],
            [
              -121.1879971,
              39.2030247
            ],
            [
              -121.1874109,
              39.2028918
            ],
            [
              -121.1874338,
              39.2028094
            ],
            [
              -121.188708,
              39.2030822
            ],
            [
              -121.1890445,
              39.2031839
            ],
            [
              -121.1889279,
              39.2033778
            ],
            [
              -121.1887494,
              39.2034491
            ],
            [
              -121.1887947,
              39.2035184
            ],
            [
              -121.1886654,
              39.2036168
            ],
            [
              -121.1885741,
              39.2035858
            ]
          ]
        ]
      }
    },
    {
      "type": "Feature",
      "properties": {
        "Join_ID": "Snack Shack",
        "Field_Name": "Snack Shack",
        "Feature_Class": "Snack Shack"
      },
      "geometry": {
        "type": "Polygon",
        "coordinates": [
          [
            [
              -121.189249283984,
              39.203408072529356
            ],
            [
              -121.1891571466179,
              39.20338320915215
            ],
            [
              -121.18917728926056,
              39.2033383871194
            ],
            [
              -121.18926942662712,
              39.20336325051241
            ],
            [
              -121.189249283984,
              39.203408072529356
            ]
          ]
        ]
      }
    },
    {
      "type": "Feature",
      "properties": {
        "Field_Name": "Restroom",
        "Feature_Class": "Restroom"
      },
      "geometry": {
        "type": "Polygon",
        "coordinates": [
          [
            [
              -121.18884753173563,
              39.20346478096209
            ],
            [
              -121.18878245030885,
              39.203490699488185
            ],
            [
              -121.18875544470282,
              39.20344998031646
            ],
            [
              -121.1888205261296,
              39.203424061776076
            ],
            [
              -121.18884753173563,
              39.20346478096209
            ]
          ]
        ]
      }
    },
    {
      "type": "Feature",
      "properties": {
        "Feature_Class": "Parking",
        "Field_Name": "Parking"
      },
      "geometry": {
        "type": "Polygon",
        "coordinates": [
          [
            [
              -121.1882106,
              39.2031071
            ],
            [
              -121.1878068,
              39.2030499
            ],
            [
              -121.1874023,
              39.202943
            ],
            [
              -121.1873934,
              39.2030509
            ],
            [
              -121.1875042,
              39.2031392
            ],
            [
              -121.1876399,
              39.2031832
            ],
            [
              -121.1878579,
              39.2032117
            ],
            [
              -121.1879329,
              39.2032042
            ],
            [
              -121.1880898,
              39.2031645
            ],
            [
              -121.1881961,
              39.2031531
            ],
            [
              -121.1882106,
              39.2031071
            ]
          ]
        ]
      }
    },
    {
      "type": "Feature",
      "properties": {
        "Field_Name": "Restroom",
        "Feature_Class": "Restroom"
      },
      "geometry": {
        "type": "Polygon",
        "coordinates": [
          [
            [
              -121.18781578039511,
              39.20331545488108
            ],
            [
              -121.1877247371653,
              39.20332436743371
            ],
            [
              -121.18771477760353,
              39.203266556973176
            ],
            [
              -121.18780559677487,
              39.20325766634792
            ],
            [
              -121.18781578039511,
              39.20331545488108
            ]
          ]
        ]
      }
    },
    {
      "type": "Feature",
      "properties": {
        "Feature_Class": "Driveway"
      },
      "geometry": {
        "type": "LineString",
        "coordinates": [
          [
            -121.1899484,
            39.202436
          ],
          [
            -121.1900653,
            39.2025091
          ],
          [
            -121.1901221,
            39.2025726
          ],
          [
            -121.190155,
            39.202662
          ],
          [
            -121.1901699,
            39.2027686
          ],
          [
            -121.1901998,
            39.2029651
          ],
          [
            -121.1902392,
            39.2030705
          ],
          [
            -121.1903367,
            39.2032697
          ],
          [
            -121.1904631,
            39.2035002
          ],
          [
            -121.1905433,
            39.203705
          ],
          [
            -121.1905332,
            39.2038016
          ],
          [
            -121.1904543,
            39.2039012
          ],
          [
            -121.1901184,
            39.2040952
          ],
          [
            -121.1899588,
            39.2041937
          ],
          [
            -121.1898413,
            39.2042233
          ],
          [
            -121.1897095,
            39.2042317
          ],
          [
            -121.1895952,
            39.2042268
          ],
          [
            -121.1894505,
            39.2042061
          ],
          [
            -121.1858224,
            39.2035284
          ],
          [
            -121.1857457,
            39.203503
          ],
          [
            -121.1856881,
            39.2034704
          ],
          [
            -121.1856474,
            39.2034288
          ],
          [
            -121.1856269,
            39.2033754
          ],
          [
            -121.1856211,
            39.2032953
          ],
          [
            -121.1856431,
            39.2025836
          ]
        ]
      }
    },
    {
      "type": "Feature",
      "properties": {
        "Feature_Class": "Driveway"
      },
      "geometry": {
        "type": "LineString",
        "coordinates": [
          [
            -121.1895944,
            39.2042268
          ],
          [
            -121.1895339,
            39.2041952
          ],
          [
            -121.1895078,
            39.2041655
          ],
          [
            -121.1894858,
            39.2041255
          ],
          [
            -121.1894452,
            39.2040833
          ],
          [
            -121.1893698,
            39.2040523
          ],
          [
            -121.1892529,
            39.2040387
          ],
          [
            -121.1890892,
            39.2040287
          ],
          [
            -121.1889438,
            39.2039976
          ],
          [
            -121.1888262,
            39.2039582
          ],
          [
            -121.1887302,
            39.2039085
          ],
          [
            -121.1886513,
            39.2038539
          ],
          [
            -121.1885861,
            39.2037973
          ],
          [
            -121.18854,
            39.2037444
          ],
          [
            -121.1885265,
            39.2036983
          ],
          [
            -121.1885313,
            39.2036335
          ],
          [
            -121.1885552,
            39.2032355
          ],
          [
            -121.1885473,
            39.2031842
          ],
          [
            -121.1885193,
            39.2031433
          ],
          [
            -121.1884672,
            39.2031137
          ],
          [
            -121.1883955,
            39.203103
          ],
          [
            -121.18825,
            39.2030895
          ],
          [
            -121.1880048,
            39.2030543
          ],
          [
            -121.1874128,
            39.2029215
          ]
        ]
      }
    },
    {
      "type": "Feature",
      "properties": {
        "Feature_Class": "Driveway"
      },
      "geometry": {
        "type": "LineString",
        "coordinates": [
          [
            -121.19026,
            39.203109
          ],
          [
            -121.1902715,
            39.2030748
          ],
          [
            -121.1902985,
            39.2030526
          ],
          [
            -121.1903712,
            39.2030405
          ],
          [
            -121.1905208,
            39.2030258
          ],
          [
            -121.1906296,
            39.2030104
          ],
          [
            -121.1906789,
            39.2030115
          ],
          [
            -121.1907945,
            39.2030405
          ],
          [
            -121.1908983,
            39.2030635
          ],
          [
            -121.1909482,
            39.2030686
          ],
          [
            -121.1910037,
            39.2030461
          ],
          [
            -121.1910338,
            39.2030193
          ],
          [
            -121.1910693,
            39.2029527
          ],
          [
            -121.1911124,
            39.2028646
          ]
        ]
      }
    }
  ]
}
